{
  "norad_id": 61927,
  "name": "STARLINK-32622",
  "history": [
    {
      "epoch": "2026-03-28T07:20:15.281088",
      "apogee_km": 483.7452723879487,
      "perigee_km": 482.318149296093,
      "latitude_deg": -32.941363669621715,
      "longitude_deg": 42.050312320003286,
      "semi_major_axis_km": 6861.16871084202,
      "eccentricity": 0.000104,
      "inclination_deg": 43.003,
      "raan_deg": 176.2199,
      "arg_perigee_deg": 254.7198,
      "mean_anomaly_deg": 105.3539,
      "mean_motion_rev_day": 15.27585806
    },
    {
      "epoch": "2026-03-29T05:18:26.673984",
      "apogee_km": 483.4421370326945,
      "perigee_km": 482.5021650790004,
      "latitude_deg": -8.06938655599513,
      "longitude_deg": 129.92963775992393,
      "semi_major_axis_km": 6861.109151055847,
      "eccentricity": 6.85e-05,
      "inclination_deg": 43.001,
      "raan_deg": 171.0499,
      "arg_perigee_deg": 233.6187,
      "mean_anomaly_deg": 126.4601,
      "mean_motion_rev_day": 15.27605697
    }
  ]
}